[{"OBJECT_NAME":"IRIDIUM 138","OBJECT_ID":"2017-083B","EPOCH":"2026-03-09T21:30:43.184160","MEAN_MOTION":14.34218949,"ECCENTRICITY":0.00023523,"INCLINATION":86.4035,"RA_OF_ASC_NODE":3.1874,"ARG_OF_PERICENTER":77.6293,"MEAN_ANOMALY":282.5166,"EPHEMERIS_TYPE":0,"CLASSIFICATION_TYPE":"U","NORAD_CAT_ID":43071,"ELEMENT_SET_NO":999,"REV_AT_EPOCH":42990,"BSTAR":0.00011242147,"MEAN_MOTION_DOT":3.35e-6,"MEAN_MOTION_DDOT":0},{"OBJECT_NAME":"FENGYUN 1C DEB","OBJECT_ID":"1999-025BFN","EPOCH":"2026-02-24T17:31:53.078880","MEAN_MOTION":14.09280002,"ECCENTRICITY":0.01637124,"INCLINATION":98.6402,"RA_OF_ASC_NODE":39.8629,"ARG_OF_PERICENTER":268.4698,"MEAN_ANOMALY":89.7715,"EPHEMERIS_TYPE":0,"CLASSIFICATION_TYPE":"U","NORAD_CAT_ID":31068,"ELEMENT_SET_NO":999,"REV_AT_EPOCH":97397,"BSTAR":0.00025179459,"MEAN_MOTION_DOT":4.53e-6,"MEAN_MOTION_DDOT":0}]
